{
  "type": "FeatureCollection",
  "features": [
    {
      "type": "Feature",
      "properties": {
        "norad_id": 39543,
        "name": "FENGYUN 1C DEB",
        "group": "fengyun-1c-debris",
        "lat": -80.29271040491507,
        "lon": 139.03176877899537,
        "alt_km": 1231.1187420984534,
        "timestamp": "2025-12-24T09:46:31.294479+00:00",
        "meta_object_name": "FENGYUN 1C DEB",
        "meta_object_id": "1999-025EWL",
        "meta_epoch": "2025-12-22T19:42:07.379136",
        "meta_mean_motion": 13.70212175,
        "meta_eccentricity": 0.03390824,
        "meta_inclination": 99.0408,
        "meta_ra_of_asc_node": 26.0838,
        "meta_arg_of_pericenter": 115.719,
        "meta_mean_anomaly": 247.9374,
        "meta_ephemeris_type": 0,
        "meta_classification_type": "U",
        "meta_norad_cat_id": 39543,
        "meta_element_set_no": 999,
        "meta_rev_at_epoch": 49323,
        "meta_bstar": 0.00074325166,
        "meta_mean_motion_dot": 9.45e-06,
        "meta_mean_motion_ddot": 0,
        "tle_line1": "1 39543U 99025EWL 25356.82091874  .00000945  00000+0  74325-3 0  9990",
        "tle_line2": "2 39543  99.0408  26.0838 0339082 115.7190 247.9374 13.70212175493238"
      },
      "geometry": {
        "type": "Point",
        "coordinates": [
          139.03176877899537,
          -80.29271040491507
        ]
      }
    },
    {
      "type": "Feature",
      "properties": {
        "norad_id": 39544,
        "name": "FENGYUN 1C DEB",
        "group": "fengyun-1c-debris",
        "lat": -1.8185152424359268,
        "lon": -122.58546155802776,
        "alt_km": 841.0813354417096,
        "timestamp": "2025-12-24T09:46:31.294489+00:00",
        "meta_object_name": "FENGYUN 1C DEB",
        "meta_object_id": "1999-025EWM",
        "meta_epoch": "2025-12-18T10:16:20.672256",
        "meta_mean_motion": 14.05533723,
        "meta_eccentricity": 0.00544071,
        "meta_inclination": 98.7417,
        "meta_ra_of_asc_node": 231.3683,
        "meta_arg_of_pericenter": 353.4562,
        "meta_mean_anomaly": 6.589,
        "meta_ephemeris_type": 0,
        "meta_classification_type": "U",
        "meta_norad_cat_id": 39544,
        "meta_element_set_no": 999,
        "meta_rev_at_epoch": 56935,
        "meta_bstar": 0.00032895311,
        "meta_mean_motion_dot": 4.99e-06,
        "meta_mean_motion_ddot": 0,
        "tle_line1": "1 39544U 99025EWM 25352.42801704  .00000499  00000+0  32895-3 0  9994",
        "tle_line2": "2 39544  98.7417 231.3683 0054407 353.4562   6.5890 14.05533723569356"
      },
      "geometry": {
        "type": "Point",
        "coordinates": [
          -122.58546155802776,
          -1.8185152424359268
        ]
      }
    },
    {
      "type": "Feature",
      "properties": {
        "norad_id": 40688,
        "name": "FENGYUN 1C DEB",
        "group": "fengyun-1c-debris",
        "lat": 54.600413585001995,
        "lon": -19.724798712942178,
        "alt_km": 1002.5988842210236,
        "timestamp": "2025-12-24T09:46:31.294499+00:00",
        "meta_object_name": "FENGYUN 1C DEB",
        "meta_object_id": "1999-025EWU",
        "meta_epoch": "2025-12-21T04:50:00.684384",
        "meta_mean_motion": 13.83836101,
        "meta_eccentricity": 0.014203,
        "meta_inclination": 98.9696,
        "meta_ra_of_asc_node": 144.3746,
        "meta_arg_of_pericenter": 8.7318,
        "meta_mean_anomaly": 351.626,
        "meta_ephemeris_type": 0,
        "meta_classification_type": "U",
        "meta_norad_cat_id": 40688,
        "meta_element_set_no": 999,
        "meta_rev_at_epoch": 30034,
        "meta_bstar": 0.00031609,
        "meta_mean_motion_dot": 3.37e-06,
        "meta_mean_motion_ddot": 0,
        "tle_line1": "1 40688U 99025EWU 25355.20139681  .00000337  00000+0  31609-3 0  9995",
        "tle_line2": "2 40688  98.9696 144.3746 0142030   8.7318 351.6260 13.83836101300348"
      },
      "geometry": {
        "type": "Point",
        "coordinates": [
          -19.724798712942178,
          54.600413585001995
        ]
      }
    },
    {
      "type": "Feature",
      "properties": {
        "norad_id": 40689,
        "name": "FENGYUN 1C DEB",
        "group": "fengyun-1c-debris",
        "lat": 43.943683549019035,
        "lon": 104.59913005893874,
        "alt_km": 909.1458298495354,
        "timestamp": "2025-12-24T09:46:31.294510+00:00",
        "meta_object_name": "FENGYUN 1C DEB",
        "meta_object_id": "1999-025EWV",
        "meta_epoch": "2025-12-15T14:00:17.692704",
        "meta_mean_motion": 13.64713186,
        "meta_eccentricity": 0.03107205,
        "meta_inclination": 99.1258,
        "meta_ra_of_asc_node": 267.381,
        "meta_arg_of_pericenter": 93.9269,
        "meta_mean_anomaly": 269.7453,
        "meta_ephemeris_type": 0,
        "meta_classification_type": "U",
        "meta_norad_cat_id": 40689,
        "meta_element_set_no": 999,
        "meta_rev_at_epoch": 54922,
        "meta_bstar": 0.0014500265,
        "meta_mean_motion_dot": 1.584e-05,
        "meta_mean_motion_ddot": 0,
        "tle_line1": "1 40689U 99025EWV 25349.58353811  .00001584  00000+0  14500-2 0  9998",
        "tle_line2": "2 40689  99.1258 267.3810 0310720  93.9269 269.7453 13.64713186549229"
      },
      "geometry": {
        "type": "Point",
        "coordinates": [
          104.59913005893874,
          43.943683549019035
        ]
      }
    },
    {
      "type": "Feature",
      "properties": {
        "norad_id": 40691,
        "name": "FENGYUN 1C DEB",
        "group": "fengyun-1c-debris",
        "lat": -38.85422382681535,
        "lon": -157.0215391233397,
        "alt_km": 887.5503249846843,
        "timestamp": "2025-12-24T09:46:31.294520+00:00",
        "meta_object_name": "FENGYUN 1C DEB",
        "meta_object_id": "1999-025EWX",
        "meta_epoch": "2025-12-03T08:15:02.306016",
        "meta_mean_motion": 13.89944729,
        "meta_eccentricity": 0.0128434,
        "meta_inclination": 99.0573,
        "meta_ra_of_asc_node": 9.8547,
        "meta_arg_of_pericenter": 336.6089,
        "meta_mean_anomaly": 22.9259,
        "meta_ephemeris_type": 0,
        "meta_classification_type": "U",
        "meta_norad_cat_id": 40691,
        "meta_element_set_no": 999,
        "meta_rev_at_epoch": 55305,
        "meta_bstar": 0.00023937,
        "meta_mean_motion_dot": 2.71e-06,
        "meta_mean_motion_ddot": 0,
        "tle_line1": "1 40691U 99025EWX 25337.34377669  .00000271  00000+0  23937-3 0  9996",
        "tle_line2": "2 40691  99.0573   9.8547 0128434 336.6089  22.9259 13.89944729553058"
      },
      "geometry": {
        "type": "Point",
        "coordinates": [
          -157.0215391233397,
          -38.85422382681535
        ]
      }
    },
    {
      "type": "Feature",
      "properties": {
        "norad_id": 40695,
        "name": "FENGYUN 1C DEB",
        "group": "fengyun-1c-debris",
        "lat": -31.374307481674037,
        "lon": 123.84815242144312,
        "alt_km": 554.4353963191106,
        "timestamp": "2025-12-24T09:46:31.294530+00:00",
        "meta_object_name": "FENGYUN 1C DEB",
        "meta_object_id": "1999-025EXB",
        "meta_epoch": "2025-12-22T14:53:14.266464",
        "meta_mean_motion": 14.50985865,
        "meta_eccentricity": 0.02804135,
        "meta_inclination": 99.4259,
        "meta_ra_of_asc_node": 116.031,
        "meta_arg_of_pericenter": 303.6454,
        "meta_mean_anomaly": 53.8273,
        "meta_ephemeris_type": 0,
        "meta_classification_type": "U",
        "meta_norad_cat_id": 40695,
        "meta_element_set_no": 999,
        "meta_rev_at_epoch": 32009,
        "meta_bstar": 0.00019428885,
        "meta_mean_motion_dot": 1.201e-05,
        "meta_mean_motion_ddot": 0,
        "tle_line1": "1 40695U 99025EXB 25356.62030401  .00001201  00000+0  19429-3 0  9997",
        "tle_line2": "2 40695  99.4259 116.0310 0280413 303.6454  53.8273 14.50985865320092"
      },
      "geometry": {
        "type": "Point",
        "coordinates": [
          123.84815242144312,
          -31.374307481674037
        ]
      }
    },
    {
      "type": "Feature",
      "properties": {
        "norad_id": 40696,
        "name": "FENGYUN 1C DEB",
        "group": "fengyun-1c-debris",
        "lat": 80.04788032612156,
        "lon": -131.12741569135187,
        "alt_km": 933.6847814293233,
        "timestamp": "2025-12-24T09:46:31.294540+00:00",
        "meta_object_name": "FENGYUN 1C DEB",
        "meta_object_id": "1999-025EXC",
        "meta_epoch": "2025-12-23T05:49:08.601888",
        "meta_mean_motion": 13.96747225,
        "meta_eccentricity": 0.00794074,
        "meta_inclination": 98.9575,
        "meta_ra_of_asc_node": 343.7271,
        "meta_arg_of_pericenter": 328.6574,
        "meta_mean_anomaly": 30.9869,
        "meta_ephemeris_type": 0,
        "meta_classification_type": "U",
        "meta_norad_cat_id": 40696,
        "meta_element_set_no": 999,
        "meta_rev_at_epoch": 55826,
        "meta_bstar": 0.00024966024,
        "meta_mean_motion_dot": 3.12e-06,
        "meta_mean_motion_ddot": 0,
        "tle_line1": "1 40696U 99025EXC 25357.24246067  .00000312  00000+0  24966-3 0  9998",
        "tle_line2": "2 40696  98.9575 343.7271 0079407 328.6574  30.9869 13.96747225558266"
      },
      "geometry": {
        "type": "Point",
        "coordinates": [
          -131.12741569135187,
          80.04788032612156
        ]
      }
    }
  ]
}